     2              NAVIGATION DATA                         RINEX VERSION / TYPE
CCRINEXN V1.6.0 UX  CDDIS               20-MAR-26 19:26     PGM / RUN BY / DATE 
IGS BROADCAST EPHEMERIS FILE                                COMMENT             
    0.1676D-07  0.7451D-08 -0.1192D-06  0.0000D+00          ION ALPHA           
    0.1106D+06  0.0000D+00 -0.2621D+06  0.0000D+00          ION BETA            
   -0.931322574616D-09-0.355271367880D-14    61440     2411 DELTA-UTC: A0,A1,T,W
    18                                                      LEAP SECONDS        
                                                            END OF HEADER       
25 26  3 20 12  0  0.0 0.435994006693D-03-0.261479726760D-11 0.000000000000D+00
    0.109000000000D+03 0.111718750000D+03 0.453911764390D-08 0.249283241248D+01
    0.553205609322D-05 0.129124321975D-01 0.118818134069D-04 0.515372808456D+04
    0.475200000000D+06 0.651925802231D-07 0.690822570824D+00-0.156462192535D-06
    0.947751613705D+00 0.137781250000D+03 0.115956912576D+01-0.786354183379D-08
    0.227866634417D-09 0.100000000000D+01 0.241000000000D+04 0.000000000000D+00
    0.200000000000D+01 0.000000000000D+00 0.558793500000D-08 0.109000000000D+03
    0.468060000000D+06 0.400000000000D+01 0.000000000000D+00 0.000000000000D+00
26 26  3 20 12  0  0.0-0.342917162925D-03-0.511590769747D-11 0.000000000000D+00
    0.104000000000D+03 0.829062500000D+02 0.513342811360D-08 0.167244618890D+01
    0.442937016487D-05 0.110073863761D-01 0.132005661726D-04 0.515373913193D+04
    0.475200000000D+06-0.258907675743D-06 0.615978107789D+00 0.968575477600D-07
    0.928561828224D+00 0.109562500000D+03 0.711664975360D+00-0.838427781025D-08
    0.134291308058D-09 0.100000000000D+01 0.241000000000D+04 0.000000000000D+00
    0.200000000000D+01 0.000000000000D+00 0.651925802231D-08 0.104000000000D+03
    0.468018000000D+06 0.400000000000D+01 0.000000000000D+00 0.000000000000D+00
27 26  3 20 12  0  0.0-0.749304890633D-04-0.130739863380D-10 0.000000000000D+00
    0.470000000000D+02 0.414687500000D+02 0.537522389965D-08-0.646230924512D-01
    0.231713056564D-05 0.143749149283D-01 0.177510082722D-05 0.515366302872D+04
    0.475200000000D+06-0.540167093277D-07 0.174625015291D+01 0.165775418282D-06
    0.952048032942D+00 0.337687500000D+03 0.887675298439D+00-0.906073455882D-08
    0.332156692802D-10 0.100000000000D+01 0.241000000000D+04 0.000000000000D+00
    0.280000000000D+01 0.000000000000D+00 0.232830643654D-08 0.470000000000D+02
    0.469362000000D+06 0.400000000000D+01 0.000000000000D+00 0.000000000000D+00
28 26  3 20 12  0  0.0-0.574150122702D-03 0.807176547823D-11 0.000000000000D+00
    0.173000000000D+03-0.670312500000D+02 0.469590988921D-08-0.257211374659D+01
   -0.344030559063D-05 0.432977802120D-03 0.101346522570D-04 0.515380397415D+04
    0.475200000000D+06 0.204890966415D-07-0.358165482870D+00-0.353902578354D-07
    0.962173433174D+00 0.186562500000D+03-0.100735810405D+00-0.806140721854D-08
   -0.580381318069D-09 0.100000000000D+01 0.241000000000D+04 0.000000000000D+00
    0.200000000000D+01 0.000000000000D+00-0.977888703346D-08 0.685000000000D+03
    0.468023000000D+06 0.400000000000D+01 0.000000000000D+00 0.000000000000D+00
29 26  3 20 12  0  0.0-0.355651602149D-03 0.693489710102D-11 0.000000000000D+00
    0.360000000000D+02 0.111875000000D+02 0.501878048092D-08-0.207429721880D+00
    0.452622771263D-06 0.342913740315D-02 0.158324837685D-05 0.515374539185D+04
    0.475200000000D+06 0.167638063431D-07 0.183586773032D+01-0.763684511185D-07
    0.961271826522D+00 0.349406250000D+03 0.274363422486D+01-0.869357640807D-08
   -0.850035407387D-10 0.100000000000D+01 0.241000000000D+04 0.000000000000D+00
    0.200000000000D+01 0.000000000000D+00-0.977888703346D-08 0.360000000000D+02
    0.468024000000D+06 0.400000000000D+01 0.000000000000D+00 0.000000000000D+00
31 26  3 20 12  0  0.0-0.160481780767D-03 0.227373675443D-11 0.000000000000D+00
    0.500000000000D+02-0.713437500000D+02 0.478091342995D-08 0.220561055669D+01
   -0.378303229809D-05 0.108418046730D-01 0.106319785118D-04 0.515357823181D+04
    0.475200000000D+06-0.670552253723D-07-0.308335619919D+00-0.273808836937D-06
    0.955030690302D+00 0.172375000000D+03 0.939092888325D+00-0.802747723379D-08
   -0.565380693232D-09 0.100000000000D+01 0.241000000000D+04 0.000000000000D+00
    0.200000000000D+01 0.000000000000D+00-0.135041773319D-07 0.500000000000D+02
    0.468018000000D+06 0.400000000000D+01 0.000000000000D+00 0.000000000000D+00
26 26  3 20 13 59 44.0-0.342953018844D-03-0.511590769747D-11 0.000000000000D+00
    0.600000000000D+01 0.970312500000D+02 0.501985195413D-08 0.272035364499D+01
    0.490248203278D-05 0.110070536612D-01 0.129509717226D-04 0.515373793030D+04
    0.482384000000D+06-0.502914190292D-07 0.615918550931D+00-0.152736902237D-06
    0.928564540475D+00 0.111093750000D+03 0.711570636162D+00-0.806069290307D-08
    0.210365905442D-09 0.100000000000D+01 0.241000000000D+04 0.000000000000D+00
    0.200000000000D+01 0.000000000000D+00 0.651925802231D-08 0.600000000000D+01
    0.475225000000D+06 0.400000000000D+01 0.000000000000D+00 0.000000000000D+00
 1 26  3 20 14  0  0.0 0.314110424370D-03-0.693489710102D-11 0.000000000000D+00
    0.620000000000D+02-0.124968750000D+03 0.446625746612D-08-0.282257004406D+00
   -0.663660466671D-05 0.163121847436D-02 0.896491110325D-05 0.515362448502D+04
    0.482400000000D+06 0.968575477600D-07 0.288419965209D+01 0.242143869400D-07
    0.958083794481D+00 0.206218750000D+03 0.111301600181D+00-0.819534136886D-08
   -0.602525097589D-09 0.100000000000D+01 0.241000000000D+04 0.000000000000D+00
    0.200000000000D+01 0.000000000000D+00-0.931322574616D-08 0.620000000000D+02
    0.480793000000D+06 0.400000000000D+01 0.000000000000D+00 0.000000000000D+00
 2 26  3 20 14  0  0.0 0.617331825197D-04 0.784439180279D-11 0.000000000000D+00
    0.181000000000D+03-0.122812500000D+03 0.455911847701D-08 0.120043672977D+01
   -0.669620931148D-05 0.168638641480D-01 0.653974711895D-05 0.515358554840D+04
    0.482400000000D+06 0.424683094025D-06 0.272179677125D+01-0.987201929092D-07
    0.963223520160D+00 0.249093750000D+03-0.801866753015D+00-0.826820154664D-08
   -0.665742016541D-09 0.100000000000D+01 0.241000000000D+04 0.000000000000D+00
    0.200000000000D+01 0.000000000000D+00-0.176951289177D-07 0.181000000000D+03
    0.481038000000D+06 0.400000000000D+01 0.000000000000D+00 0.000000000000D+00
 4 26  3 20 14  0  0.0 0.496902503073D-04 0.181898940355D-11 0.000000000000D+00
    0.990000000000D+02 0.137187500000D+02 0.477162732886D-08 0.574773845363D+00
    0.761821866035D-06 0.372162694112D-02 0.406429171562D-05 0.515371443939D+04
    0.482400000000D+06 0.316649675369D-07-0.134147776630D+01 0.987201929092D-07
    0.970407270089D+00 0.306281250000D+03-0.287183218800D+01-0.833356141200D-08
    0.249296098469D-09 0.100000000000D+01 0.241000000000D+04 0.000000000000D+00
    0.280000000000D+01 0.000000000000D+00-0.465661287308D-08 0.867000000000D+03
    0.475218000000D+06 0.400000000000D+01 0.000000000000D+00 0.000000000000D+00
 5 26  3 20 14  0  0.0-0.230595003813D-03-0.568434188608D-12 0.000000000000D+00
    0.650000000000D+02 0.187812500000D+02 0.379230082169D-08 0.124680139915D+01
    0.897794961929D-06 0.543337315321D-02 0.125337392092D-04 0.515371886444D+04
    0.482400000000D+06-0.428408384323D-07-0.247179877383D+01-0.109896063805D-06
    0.980230503129D+00 0.152500000000D+03 0.141733672499D+01-0.773282210308D-08
    0.362157942475D-09 0.100000000000D+01 0.241000000000D+04 0.000000000000D+00
    0.200000000000D+01 0.000000000000D+00-0.107102096081D-07 0.650000000000D+02
    0.475218000000D+06 0.400000000000D+01 0.000000000000D+00 0.000000000000D+00
 7 26  3 20 14  0  0.0-0.163043849170D-03-0.466116034659D-11 0.000000000000D+00
    0.110000000000D+03-0.669687500000D+02 0.472912555849D-08-0.193739781162D+01
   -0.346824526787D-05 0.205985013163D-01 0.890344381332D-05 0.515361775971D+04
    0.482400000000D+06 0.318512320519D-06-0.332679020022D+00-0.540167093277D-07
    0.951254895813D+00 0.192312500000D+03-0.198661754996D+01-0.789818613401D-08
   -0.366800993019D-09 0.100000000000D+01 0.241000000000D+04 0.000000000000D+00
    0.200000000000D+01 0.000000000000D+00-0.107102096081D-07 0.110000000000D+03
    0.475218000000D+06 0.400000000000D+01 0.000000000000D+00 0.000000000000D+00
 8 26  3 20 14  0  0.0 0.475379638374D-03-0.602540239925D-11 0.000000000000D+00
    0.102000000000D+03 0.537500000000D+02 0.556380318331D-08 0.881458256480D+00
    0.306405127049D-05 0.115806414979D-01 0.176578760147D-05 0.515369153213D+04
    0.482400000000D+06-0.484287738800D-07 0.171398320228D+01 0.113621354103D-06
    0.942955030090D+00 0.333156250000D+03 0.530982229450D+00-0.904466246078D-08
   -0.214294640518D-11 0.100000000000D+01 0.241000000000D+04 0.000000000000D+00
    0.200000000000D+01 0.000000000000D+00 0.465661287308D-08 0.102000000000D+03
    0.475218000000D+06 0.400000000000D+01 0.000000000000D+00 0.000000000000D+00
 9 26  3 20 14  0  0.0 0.765477307141D-03-0.216004991671D-11 0.000000000000D+00
    0.176000000000D+03 0.250625000000D+02 0.484198740250D-08 0.147726987177D+01
    0.131689012051D-05 0.333781284280D-02 0.416859984398D-05 0.515375769615D+04
    0.482400000000D+06 0.875443220139D-07-0.140587342327D+01-0.409781932831D-07
    0.964588621685D+00 0.300218750000D+03 0.206154225990D+01-0.834927635230D-08
    0.347871633107D-09 0.100000000000D+01 0.241000000000D+04 0.000000000000D+00
    0.200000000000D+01 0.000000000000D+00 0.465661287308D-09 0.176000000000D+03
    0.475218000000D+06 0.400000000000D+01 0.000000000000D+00 0.000000000000D+00
